{"type": "FeatureCollection", "features": [ {"type": "Feature", "properties": {"norad_id": 66625, "name": "STARLINK-35929", "group": "last-30-days", "lat": -49.56833375760316, "lon": 69.19613790966214, "alt_km": 452.38815706043806, "timestamp": "2025-12-24T14:43:27.719146+00:00", "meta": {"OBJECT_NAME": "STARLINK-35929", "OBJECT_ID": "2025-271J", "EPOCH": "2025-12-24T02:34:23.921184", "MEAN_MOTION": 15.39636358, "ECCENTRICITY": 0.00010769, "INCLINATION": 53.1612, "RA_OF_ASC_NODE": 133.2116, "ARG_OF_PERICENTER": 83.5284, "MEAN_ANOMALY": 276.5843, "EPHEMERIS_TYPE": 0, "CLASSIFICATION_TYPE": "U", "NORAD_CAT_ID": 66625, "ELEMENT_SET_NO": 999, "REV_AT_EPOCH": 596, "BSTAR": 0.0016519887, "MEAN_MOTION_DOT": 0.00066291, "MEAN_MOTION_DDOT": 0}, "tle": {"line1": "1 66625U 25271J   25358.10722131  .00066291  00000+0  16520-2 0  9991", "line2": "2 66625  53.1612 133.2116 0001076  83.5284 276.5843 15.39636358  5960"}}, "geometry": {"type": "Point", "coordinates": [69.19613790966214, -49.56833375760316]}}, {"type": "Feature", "properties": {"norad_id": 66626, "name": "STARLINK-35902", "group": "last-30-days", "lat": -24.299609476012577, "lon": -29.238072465670573, "alt_km": 450.5492326715412, "timestamp": "2025-12-24T14:43:27.719156+00:00", "meta": {"OBJECT_NAME": "STARLINK-35902", "OBJECT_ID": "2025-271K", "EPOCH": "2025-12-23T20:40:32.560608", "MEAN_MOTION": 15.39657633, "ECCENTRICITY": 3.018e-05, "INCLINATION": 53.1603, "RA_OF_ASC_NODE": 134.5213, "ARG_OF_PERICENTER": 38.6055, "MEAN_ANOMALY": 321.4971, "EPHEMERIS_TYPE": 0, "CLASSIFICATION_TYPE": "U", "NORAD_CAT_ID": 66626, "ELEMENT_SET_NO": 999, "REV_AT_EPOCH": 592, "BSTAR": 0.0011579429, "MEAN_MOTION_DOT": 0.00046256, "MEAN_MOTION_DDOT": 0}, "tle": {"line1": "1 66626U 25271K   25357.86148797  .00046256  00000+0  11579-2 0  9992", "line2": "2 66626  53.1603 134.5213 0000301  38.6055 321.4971 15.39657633  5927"}}, "geometry": {"type": "Point", "coordinates": [-29.238072465670573, -24.299609476012577]}}, {"type": "Feature", "properties": {"norad_id": 66627, "name": "STARLINK-35904", "group": "last-30-days", "lat": -52.44302691910036, "lon": 28.035268083394666, "alt_km": 453.4274096911413, "timestamp": "2025-12-24T14:43:27.719167+00:00", "meta": {"OBJECT_NAME": "STARLINK-35904", "OBJECT_ID": "2025-271L", "EPOCH": "2025-12-24T02:41:05.526528", "MEAN_MOTION": 15.39625433, "ECCENTRICITY": 0.00023372, "INCLINATION": 53.1614, "RA_OF_ASC_NODE": 133.2407, "ARG_OF_PERICENTER": 88.5134, "MEAN_ANOMALY": 271.6139, "EPHEMERIS_TYPE": 0, "CLASSIFICATION_TYPE": "U", "NORAD_CAT_ID": 66627, "ELEMENT_SET_NO": 999, "REV_AT_EPOCH": 592, "BSTAR": 0.0014526718, "MEAN_MOTION_DOT": 0.00058163, "MEAN_MOTION_DDOT": 0}, "tle": {"line1": "1 66627U 25271L   25358.11186952  .00058163  00000+0  14527-2 0  9993", "line2": "2 66627  53.1614 133.2407 0002337  88.5134 271.6139 15.39625433  5929"}}, "geometry": {"type": "Point", "coordinates": [28.035268083394666, -52.44302691910036]}}, {"type": "Feature", "properties": {"norad_id": 66628, "name": "STARLINK-35862", "group": "last-30-days", "lat": 25.559309842431098, "lon": 151.6281520822443, "alt_km": 443.8316759023437, "timestamp": "2025-12-24T14:43:27.719177+00:00", "meta": {"OBJECT_NAME": "STARLINK-35862", "OBJECT_ID": "2025-271M", "EPOCH": "2025-12-24T08:00:03.000384", "MEAN_MOTION": 15.39572642, "ECCENTRICITY": 0.00011839, "INCLINATION": 53.1599, "RA_OF_ASC_NODE": 131.9373, "ARG_OF_PERICENTER": 83.9555, "MEAN_ANOMALY": 195.165, "EPHEMERIS_TYPE": 0, "CLASSIFICATION_TYPE": "U", "NORAD_CAT_ID": 66628, "ELEMENT_SET_NO": 999, "REV_AT_EPOCH": 610, "BSTAR": 0.001901921, "MEAN_MOTION_DOT": 0.00076321, "MEAN_MOTION_DDOT": 0}, "tle": {"line1": "1 66628U 25271M   25358.33336806  .00076321  00000+0  19019-2 0  9990", "line2": "2 66628  53.1599 131.9373 0001183  83.9555 195.1650 15.39572642  6105"}}, "geometry": {"type": "Point", "coordinates": [151.6281520822443, 25.559309842431098]}}, {"type": "Feature", "properties": {"norad_id": 66629, "name": "STARLINK-35956", "group": "last-30-days", "lat": -27.525317204781757, "lon": -26.74060207193717, "alt_km": 411.6307753338906, "timestamp": "2025-12-24T14:43:27.719187+00:00", "meta": {"OBJECT_NAME": "STARLINK-35956", "OBJECT_ID": "2025-271N", "EPOCH": "2025-12-24T06:05:20.296896", "MEAN_MOTION": 15.54607913, "ECCENTRICITY": 0.00082714, "INCLINATION": 53.1724, "RA_OF_ASC_NODE": 132.0067, "ARG_OF_PERICENTER": 31.118, "MEAN_ANOMALY": 329.032, "EPHEMERIS_TYPE": 0, "CLASSIFICATION_TYPE": "U", "NORAD_CAT_ID": 66629, "ELEMENT_SET_NO": 999, "REV_AT_EPOCH": 85, "BSTAR": 0.0062497321, "MEAN_MOTION_DOT": 0.00444668, "MEAN_MOTION_DDOT": 0}, "tle": {"line1": "1 66629U 25271N   25358.25370714  .00444668  00000+0  62497-2 0  9999", "line2": "2 66629  53.1724 132.0067 0008271  31.1180 329.0320 15.54607913   857"}}, "geometry": {"type": "Point", "coordinates": [-26.74060207193717, -27.525317204781757]}}, {"type": "Feature", "properties": {"norad_id": 66630, "name": "STARLINK-35949", "group": "last-30-days", "lat": 41.94124503926712, "lon": 172.91703374123622, "alt_km": 440.4920690510244, "timestamp": "2025-12-24T14:43:27.719199+00:00", "meta": {"OBJECT_NAME": "STARLINK-35949", "OBJECT_ID": "2025-271P", "EPOCH": "2025-12-24T08:00:03.000384", "MEAN_MOTION": 15.40974916, "ECCENTRICITY": 0.00011446, "INCLINATION": 53.1603, "RA_OF_ASC_NODE": 131.8896, "ARG_OF_PERICENTER": 105.1434, "MEAN_ANOMALY": 197.1623, "EPHEMERIS_TYPE": 0, "CLASSIFICATION_TYPE": "U", "NORAD_CAT_ID": 66630, "ELEMENT_SET_NO": 999, "REV_AT_EPOCH": 610, "BSTAR": -0.050710461, "MEAN_MOTION_DOT": -0.01901224, "MEAN_MOTION_DDOT": 0}, "tle": {"line1": "1 66630U 25271P   25358.33336806 -.01901224  00000+0 -50710-1 0  9997", "line2": "2 66630  53.1603 131.8896 0001144 105.1434 197.1623 15.40974916  6107"}}, "geometry": {"type": "Point", "coordinates": [172.91703374123622, 41.94124503926712]}}, {"type": "Feature", "properties": {"norad_id": 66631, "name": "STARLINK-35965", "group": "last-30-days", "lat": 44.39539158202587, "lon": 177.78974391223701, "alt_km": 432.6906151807834, "timestamp": "2025-12-24T14:43:27.719212+00:00", "meta": {"OBJECT_NAME": "STARLINK-35965", "OBJECT_ID": "2025-271Q", "EPOCH": "2025-12-24T02:01:10.494336", "MEAN_MOTION": 15.42508986, "ECCENTRICITY": 0.00019945, "INCLINATION": 53.1597, "RA_OF_ASC_NODE": 133.0666, "ARG_OF_PERICENTER": 92.608, "MEAN_ANOMALY": 267.5155, "EPHEMERIS_TYPE": 0, "CLASSIFICATION_TYPE": "U", "NORAD_CAT_ID": 66631, "ELEMENT_SET_NO": 999, "REV_AT_EPOCH": 596, "BSTAR": -0.0077114013, "MEAN_MOTION_DOT": -0.00325958, "MEAN_MOTION_DDOT": 0}, "tle": {"line1": "1 66631U 25271Q   25358.08414924 -.00325958  00000+0 -77114-2 0  9999", "line2": "2 66631  53.1597 133.0666 0001994  92.6080 267.5155 15.42508986  5966"}}, "geometry": {"type": "Point", "coordinates": [177.78974391223701, 44.39539158202587]}}, {"type": "Feature", "properties": {"norad_id": 66632, "name": "STARLINK-35973", "group": "last-30-days", "lat": 16.35393910927628, "lon": -61.63180307958155, "alt_km": 445.77618872260337, "timestamp": "2025-12-24T14:43:27.719222+00:00", "meta": {"OBJECT_NAME": "STARLINK-35973", "OBJECT_ID": "2025-271R", "EPOCH": "2025-12-23T20:53:55.230432", "MEAN_MOTION": 15.3964384, "ECCENTRICITY": 0.00014608, "INCLINATION": 53.1592, "RA_OF_ASC_NODE": 134.5786, "ARG_OF_PERICENTER": 54.0913, "MEAN_ANOMALY": 306.0227, "EPHEMERIS_TYPE": 0, "CLASSIFICATION_TYPE": "U", "NORAD_CAT_ID": 66632, "ELEMENT_SET_NO": 999, "REV_AT_EPOCH": 588, "BSTAR": 0.00086763253, "MEAN_MOTION_DOT": 0.00034489, "MEAN_MOTION_DDOT": 0}, "tle": {"line1": "1 66632U 25271R   25357.87077813  .00034489  00000+0  86763-3 0  9993", "line2": "2 66632  53.1592 134.5786 0001460  54.0913 306.0227 15.39643840  5881"}}, "geometry": {"type": "Point", "coordinates": [-61.63180307958155, 16.35393910927628]}}, {"type": "Feature", "properties": {"norad_id": 66633, "name": "STARLINK-35948", "group": "last-30-days", "lat": 14.938219767928318, "lon": -60.464712684495, "alt_km": 445.9530469810461, "timestamp": "2025-12-24T14:43:27.719235+00:00", "meta": {"OBJECT_NAME": "STARLINK-35948", "OBJECT_ID": "2025-271S", "EPOCH": "2025-12-23T20:53:26.239776", "MEAN_MOTION": 15.39641401, "ECCENTRICITY": 3.207e-05, "INCLINATION": 53.1599, "RA_OF_ASC_NODE": 134.576, "ARG_OF_PERICENTER": 293.0532, "MEAN_ANOMALY": 67.0439, "EPHEMERIS_TYPE": 0, "CLASSIFICATION_TYPE": "U", "NORAD_CAT_ID": 66633, "ELEMENT_SET_NO": 999, "REV_AT_EPOCH": 592, "BSTAR": 0.00074568042, "MEAN_MOTION_DOT": 0.00029564, "MEAN_MOTION_DDOT": 0}, "tle": {"line1": "1 66633U 25271S   25357.87044259  .00029564  00000+0  74568-3 0  9990", "line2": "2 66633  53.1599 134.5760 0000320 293.0532  67.0439 15.39641401  5922"}}, "geometry": {"type": "Point", "coordinates": [-60.464712684495, 14.938219767928318]}}, {"type": "Feature", "properties": {"norad_id": 66634, "name": "STARLINK-35967", "group": "last-30-days", "lat": -5.510058072470098, "lon": -44.83032640294006, "alt_km": 448.6196723883513, "timestamp": "2025-12-24T14:43:27.719245+00:00", "meta": {"OBJECT_NAME": "STARLINK-35967", "OBJECT_ID": "2025-271T", "EPOCH": "2025-12-24T04:34:08.757696", "MEAN_MOTION": 15.39628169, "ECCENTRICITY": 0.00013279, "INCLINATION": 53.1614, "RA_OF_ASC_NODE": 133.0169, "ARG_OF_PERICENTER": 97.4774, "MEAN_ANOMALY": 262.6382, "EPHEMERIS_TYPE": 0, "CLASSIFICATION_TYPE": "U", "NORAD_CAT_ID": 66634, "ELEMENT_SET_NO": 999, "REV_AT_EPOCH": 593, "BSTAR": 0.0014714856, "MEAN_MOTION_DOT": 0.00058931, "MEAN_MOTION_DDOT": 0}, "tle": {"line1": "1 66634U 25271T   25358.19037914  .00058931  00000+0  14715-2 0  9994", "line2": "2 66634  53.1614 133.0169 0001327  97.4774 262.6382 15.39628169  5937"}}, "geometry": {"type": "Point", "coordinates": [-44.83032640294006, -5.510058072470098]}}]}